IRIDIUM 106             
1 41917U 17003A   25136.39169399  .00000056  00000+0  12904-4 0  9999
2 41917  86.3966 254.2875 0002724  99.2027 260.9477 14.34217915436330
IRIDIUM 103             
1 41918U 17003B   25136.37900730 -.00000011  00000+0 -10825-4 0  9993
2 41918  86.3963 254.1939 0001928 111.8634 248.2767 14.34217472436359
IRIDIUM 109             
1 41919U 17003C   25136.38534974  .00000043  00000+0  82655-5 0  9992
2 41919  86.3967 254.2440 0002031  96.6611 263.4816 14.34217910436321
IRIDIUM 102             
1 41920U 17003D   25136.35363738  .00000012  00000+0 -26816-5 0  9993
2 41920  86.3964 254.1894 0002099  91.1349 269.0087 14.34217643436408
IRIDIUM 105             
1 41921U 17003E   25136.25460802  .00000232  00000+0  75635-4 0  9998
2 41921  86.4010 222.6835 0002150 101.0313 259.1125 14.34217122438246
IRIDIUM 104             
1 41922U 17003F   25136.36632159  .00000035  00000+0  55278-5 0  9990
2 41922  86.3967 254.2205 0001807 100.2326 259.9074 14.34217833436396
IRIDIUM 114             
1 41923U 17003G   25136.37266513  .00000031  00000+0  41773-5 0  9990
2 41923  86.3966 254.2024 0002212 102.8785 257.2658 14.34217756436374
IRIDIUM 108             
1 41924U 17003H   25136.33118633  .00000318  00000+0  10644-3 0  9995
2 41924  86.4006 222.5547 0002482  94.0488 266.0992 14.34217340438224
